[ {"name": "STARLINK-35374", "line1": "1 66194U 25243T   26169.60325310  .00016500  00000+0  54220-3 0  9993", "line2": "2 66194  53.1581 135.8400 0001487  83.6935 276.4236 15.31706432 36119"}, {"name": "STARLINK-34813", "line1": "1 66195U 25243U   26169.75002315  .00051572  00000+0  15288-2 0  9995", "line2": "2 66195  53.1605 135.6676 0001993  83.7306 107.8768 15.34363057  5898"}, {"name": "STARLINK-35409", "line1": "1 66196U 25243V   26169.33711313  .00010926  00000+0  38042-3 0  9997", "line2": "2 66196  53.1577 137.7334 0001128  76.0047 284.1079 15.30204477 36061"}, {"name": "STARLINK-35259", "line1": "1 66197U 25243W   26169.60470718  .00012350  00000+0  42845-3 0  9998", "line2": "2 66197  53.1590 136.5607 0001634  91.6918 268.4270 15.30196745 36100"}, {"name": "STARLINK-35518", "line1": "1 66198U 25243X   26169.63320017  .00013136  00000+0  45470-3 0  9998", "line2": "2 66198  53.1603 136.7390 0001625  70.3207 289.7969 15.30210884 36104"}, {"name": "STARLINK-35509", "line1": "1 66199U 25243Y   26169.19592969  .00010248  00000+0  35756-3 0  9994", "line2": "2 66199  53.1585 138.2695 0001099  82.7416 277.3709 15.30207638 36044"}, {"name": "STARLINK-35551", "line1": "1 66200U 25243Z   26169.32972649  .00010912  00000+0  37988-3 0  9996", "line2": "2 66200  53.1579 137.6853 0001055  94.1648 265.9473 15.30209953 36060"}, {"name": "STARLINK-35543", "line1": "1 66201U 25243AA  26169.66671295  .00007531  00000+0  25425-3 0  9993", "line2": "2 66201  53.1588 135.7456 0001420  91.6521 155.5718 15.31693960  5885"}, {"name": "STARLINK-35534", "line1": "1 66202U 25243AB  26169.33605620  .00015034  00000+0  51857-3 0  9992", "line2": "2 66202  53.1582 137.7247 0001282  89.3917 270.7231 15.30207852 36063"}, {"name": "STARLINK-35548", "line1": "1 66203U 25243AC  26169.14328154  .00020756  00000+0  71092-3 0  9996", "line2": "2 66203  53.1578 138.6539 0001293  95.2614 264.8534 15.30200826 36036"}, {"name": "STARLINK-35490", "line1": "1 66204U 25243AD  26169.60681740  .00022469  00000+0  76842-3 0  9992", "line2": "2 66204  53.1581 136.5708 0001314  78.7576 281.3573 15.30201880 36109"}, {"name": "STARLINK-35748", "line1": "1 66206U 25244A   26169.15529459  .00016081  00000+0  48564-3 0  9996", "line2": "2 66206  53.1584 122.3859 0001078  99.5909 260.5215 15.34425971 37052"}, {"name": "STARLINK-35747", "line1": "1 66207U 25244B   26169.58185735  .00002827  00000+0  94764-4 0  9996", "line2": "2 66207  53.1596 120.7262 0001644  93.5830 266.5360 15.34408222 37116"}, {"name": "STARLINK-35751", "line1": "1 66208U 25244C   26169.24988007  .00019700  00000+0  59235-3 0  9994", "line2": "2 66208  53.1605 122.2638 0000792 106.5907 253.5183 15.34415693 37068"}, {"name": "STARLINK-35750", "line1": "1 66209U 25244D   26169.56083488  .00013904  00000+0  42194-3 0  9995", "line2": "2 66209  53.1616 120.6471 0001598  81.0242 279.0942 15.34395309 37115"}, {"name": "STARLINK-35740", "line1": "1 66210U 25244E   26169.15740294  .00016691  00000+0  50392-3 0  9992", "line2": "2 66210  53.1590 122.3967 0001063 105.7837 254.3283 15.34406549 37054"}, {"name": "STARLINK-35723", "line1": "1 66211U 25244F   26169.56715753  .00014416  00000+0  43697-3 0  9993", "line2": "2 66211  53.1603 120.6832 0001495  77.2450 282.8719 15.34399817 37100"}, {"name": "STARLINK-35710", "line1": "1 66212U 25244G   26169.58779235  .00005038  00000+0  18210-3 0  9994", "line2": "2 66212  53.1610 121.5201 0001467  94.5159 265.6009 15.30203654 37106"}, {"name": "STARLINK-34204", "line1": "1 66213U 25244H   26169.59717890  .00014308  00000+0  49425-3 0  9997", "line2": "2 66213  53.1613 120.8734 0001803  68.4444 291.6749 15.30200925 37113"}, {"name": "STARLINK-35714", "line1": "1 66214U 25244J   26169.59622444  .00016599  00000+0  57180-3 0  9999", "line2": "2 66214  53.1602 121.5718 0001139  84.1991 275.9140 15.30171847 37105"}, {"name": "STARLINK-35712", "line1": "1 66215U 25244K   26169.75002315  .00056157  00000+0  16626-2 0  9990", "line2": "2 66215  53.1607 120.2165 0000830  93.0440   0.1212 15.34365090  5908"}, {"name": "STARLINK-35709", "line1": "1 66216U 25244L   26169.57722625  .00002999  00000+0  11332-3 0  9999", "line2": "2 66216  53.1580 121.4571 0001745  87.5870 272.5331 15.30207863 37107"}, {"name": "STARLINK-35700", "line1": "1 66217U 25244M   26169.57090590  .00010325  00000+0  36020-3 0  9992", "line2": "2 66217  53.1596 121.4164 0001601  90.9743 269.1442 15.30203174 37095"}, {"name": "STARLINK-35722", "line1": "1 66218U 25244N   26169.55662622  .00016324  00000+0  49320-3 0  9994", "line2": "2 66218  53.1579 120.6166 0001566  82.1251 277.9930 15.34400521 37118"}, {"name": "STARLINK-35737", "line1": "1 66219U 25244P   26169.56924801  .00009707  00000+0  29801-3 0  9995", "line2": "2 66219  53.1600 120.7023 0002124  97.3577 262.7668 15.34403522 37111"}, {"name": "STARLINK-35677", "line1": "1 66220U 25244Q   26169.29397669  .00030734  00000+0  91692-3 0  9994", "line2": "2 66220  53.1596 121.8276 0001170  83.0385 277.0751 15.34403579 37077"}, {"name": "STARLINK-35704", "line1": "1 66221U 25244R   26169.56879668  .00018365  00000+0  63059-3 0  9991", "line2": "2 66221  53.1591 121.4019 0001463  81.8649 278.2518 15.30203761 37103"}, {"name": "STARLINK-35666", "line1": "1 66222U 25244S   26169.57195229  .00005150  00000+0  18588-3 0  9992", "line2": "2 66222  53.1593 121.4206 0002485  86.8089 273.3196 15.30206589 37101"}, {"name": "STARLINK-35664", "line1": "1 66223U 25244T   26169.57829344  .00008282  00000+0  29149-3 0  9999", "line2": "2 66223  53.1614 121.4568 0001645  98.0146 262.1041 15.30195898 37108"}, {"name": "STARLINK-35733", "line1": "1 66224U 25244U   26169.59199654  .00047224  00000+0  15921-2 0  9997", "line2": "2 66224  53.1609 121.5432 0001207  75.2309 284.8825 15.30287985 37106"}]