OBJECT_NAME,OBJECT_ID,EPOCH,MEAN_MOTION,ECCENTRICITY,INCLINATION,RA_OF_ASC_NODE,ARG_OF_PERICENTER,MEAN_ANOMALY,EPHEMERIS_TYPE,CLASSIFICATION_TYPE,NORAD_CAT_ID,ELEMENT_SET_NO,REV_AT_EPOCH,BSTAR,MEAN_MOTION_DOT,MEAN_MOTION_DDOT
STARLINK-35374,2025-243T,2026-06-18T14:28:41.067840,15.31706432,.0001487,53.1581,135.8400,83.6935,276.4236,0,U,66194,999,3611,.5422E-3,.165E-3,0
STARLINK-34813,2025-243U,2026-06-18T18:00:02.000160,15.34363057,.0001993,53.1605,135.6676,83.7306,107.8768,0,U,66195,999,589,.15288E-2,.51572E-3,0
STARLINK-35409,2025-243V,2026-06-18T08:05:26.574432,15.30204477,.0001128,53.1577,137.7334,76.0047,284.1079,0,U,66196,999,3606,.38042E-3,.10926E-3,0
STARLINK-35259,2025-243W,2026-06-18T14:30:46.700352,15.30196745,.0001634,53.1590,136.5607,91.6918,268.4270,0,U,66197,999,3610,.42845E-3,.1235E-3,0
STARLINK-35518,2025-243X,2026-06-18T15:11:48.494688,15.30210884,.0001625,53.1603,136.7390,70.3207,289.7969,0,U,66198,999,3610,.4547E-3,.13136E-3,0
STARLINK-35509,2025-243Y,2026-06-18T04:42:08.325216,15.30207638,.0001099,53.1585,138.2695,82.7416,277.3709,0,U,66199,999,3604,.35756E-3,.10248E-3,0
STARLINK-35551,2025-243Z,2026-06-18T07:54:48.368736,15.30209953,.0001055,53.1579,137.6853,94.1648,265.9473,0,U,66200,999,3606,.37988E-3,.10912E-3,0
STARLINK-35543,2025-243AA,2026-06-18T16:00:03.998880,15.31693960,.000142,53.1588,135.7456,91.6521,155.5718,0,U,66201,999,588,.25425E-3,.7531E-4,0
STARLINK-35534,2025-243AB,2026-06-18T08:03:55.255680,15.30207852,.0001282,53.1582,137.7247,89.3917,270.7231,0,U,66202,999,3606,.51857E-3,.15034E-3,0
STARLINK-35548,2025-243AC,2026-06-18T03:26:19.525056,15.30200826,.0001293,53.1578,138.6539,95.2614,264.8534,0,U,66203,999,3603,.71092E-3,.20756E-3,0
STARLINK-35490,2025-243AD,2026-06-18T14:33:49.023360,15.30201880,.0001314,53.1581,136.5708,78.7576,281.3573,0,U,66204,999,3610,.76842E-3,.22469E-3,0
STARLINK-35748,2025-244A,2026-06-18T03:43:37.452576,15.34425971,.0001078,53.1584,122.3859,99.5909,260.5215,0,U,66206,999,3705,.48564E-3,.16081E-3,0
STARLINK-35747,2025-244B,2026-06-18T13:57:52.475040,15.34408222,.0001644,53.1596,120.7262,93.5830,266.5360,0,U,66207,999,3711,.94764E-4,.2827E-4,0
STARLINK-35751,2025-244C,2026-06-18T05:59:49.638048,15.34415693,.0000792,53.1605,122.2638,106.5907,253.5183,0,U,66208,999,3706,.59235E-3,.197E-3,0
STARLINK-35750,2025-244D,2026-06-18T13:27:36.133632,15.34395309,.0001598,53.1616,120.6471,81.0242,279.0942,0,U,66209,999,3711,.42194E-3,.13904E-3,0
STARLINK-35740,2025-244E,2026-06-18T03:46:39.614016,15.34406549,.0001063,53.1590,122.3967,105.7837,254.3283,0,U,66210,999,3705,.50392E-3,.16691E-3,0
STARLINK-35723,2025-244F,2026-06-18T13:36:42.410592,15.34399817,.0001495,53.1603,120.6832,77.2450,282.8719,0,U,66211,999,3710,.43697E-3,.14416E-3,0
STARLINK-35710,2025-244G,2026-06-18T14:06:25.259040,15.30203654,.0001467,53.1610,121.5201,94.5159,265.6009,0,U,66212,999,3710,.1821E-3,.5038E-4,0
STARLINK-34204,2025-244H,2026-06-18T14:19:56.256960,15.30200925,.0001803,53.1613,120.8734,68.4444,291.6749,0,U,66213,999,3711,.49425E-3,.14308E-3,0
STARLINK-35714,2025-244J,2026-06-18T14:18:33.791616,15.30171847,.0001139,53.1602,121.5718,84.1991,275.9140,0,U,66214,999,3710,.5718E-3,.16599E-3,0
STARLINK-35712,2025-244K,2026-06-18T18:00:02.000160,15.34365090,.000083,53.1607,120.2165,93.0440,0.1212,0,U,66215,999,590,.16626E-2,.56157E-3,0
STARLINK-35709,2025-244L,2026-06-18T13:51:12.348000,15.30207863,.0001745,53.1580,121.4571,87.5870,272.5331,0,U,66216,999,3710,.11332E-3,.2999E-4,0
STARLINK-35700,2025-244M,2026-06-18T13:42:06.269760,15.30203174,.0001601,53.1596,121.4164,90.9743,269.1442,0,U,66217,999,3709,.3602E-3,.10325E-3,0
STARLINK-35722,2025-244N,2026-06-18T13:21:32.505408,15.34400521,.0001566,53.1579,120.6166,82.1251,277.9930,0,U,66218,999,3711,.4932E-3,.16324E-3,0
STARLINK-35737,2025-244P,2026-06-18T13:39:43.028064,15.34403522,.0002124,53.1600,120.7023,97.3577,262.7668,0,U,66219,999,3711,.29801E-3,.9707E-4,0
STARLINK-35677,2025-244Q,2026-06-18T07:03:19.586016,15.34403579,.000117,53.1596,121.8276,83.0385,277.0751,0,U,66220,999,3707,.91692E-3,.30734E-3,0
STARLINK-35704,2025-244R,2026-06-18T13:39:04.033152,15.30203761,.0001463,53.1591,121.4019,81.8649,278.2518,0,U,66221,999,3710,.63059E-3,.18365E-3,0
STARLINK-35666,2025-244S,2026-06-18T13:43:36.677856,15.30206589,.0002485,53.1593,121.4206,86.8089,273.3196,0,U,66222,999,3710,.18588E-3,.515E-4,0
STARLINK-35664,2025-244T,2026-06-18T13:52:44.553216,15.30195898,.0001645,53.1614,121.4568,98.0146,262.1041,0,U,66223,999,3710,.29149E-3,.8282E-4,0
STARLINK-35733,2025-244U,2026-06-18T14:12:28.501056,15.30287985,.0001207,53.1609,121.5432,75.2309,284.8825,0,U,66224,999,3710,.15921E-2,.47224E-3,0
